[{"OBJECT_NAME":"ZORKY-2M 7","OBJECT_ID":"2025-313W","EPOCH":"2026-03-09T22:43:05.743200","MEAN_MOTION":15.21225131,"ECCENTRICITY":0.00148584,"INCLINATION":97.4012,"RA_OF_ASC_NODE":145.1843,"ARG_OF_PERICENTER":357.9354,"MEAN_ANOMALY":2.1818,"EPHEMERIS_TYPE":0,"CLASSIFICATION_TYPE":"U","NORAD_CAT_ID":67268,"ELEMENT_SET_NO":999,"REV_AT_EPOCH":1085,"BSTAR":0.00041986274,"MEAN_MOTION_DOT":9.334e-5,"MEAN_MOTION_DDOT":0},{"OBJECT_NAME":"DELTA 1 DEB","OBJECT_ID":"1977-065DM","EPOCH":"2026-03-09T07:55:08.653728","MEAN_MOTION":13.83856119,"ECCENTRICITY":0.06183946,"INCLINATION":29.0603,"RA_OF_ASC_NODE":154.8442,"ARG_OF_PERICENTER":349.0049,"MEAN_ANOMALY":9.7539,"EPHEMERIS_TYPE":0,"CLASSIFICATION_TYPE":"U","NORAD_CAT_ID":10338,"ELEMENT_SET_NO":999,"REV_AT_EPOCH":39991,"BSTAR":0.00046760584,"MEAN_MOTION_DOT":2.556e-5,"MEAN_MOTION_DDOT":0}]
